{"type": "FeatureCollection", "features": [ {"type": "Feature", "properties": {"norad_id": 66375, "name": "STARLINK-35826", "group": "last-30-days", "lat": -46.88369080605063, "lon": -165.84115223859655, "alt_km": 352.1196575228323, "timestamp": "2025-12-03T10:52:56.220727+00:00", "meta": {"OBJECT_NAME": "STARLINK-35826", "OBJECT_ID": "2025-254AD", "EPOCH": "2025-12-03T02:13:27.577920", "MEAN_MOTION": 15.74202242, "ECCENTRICITY": 0.0001438, "INCLINATION": 53.157, "RA_OF_ASC_NODE": 322.7422, "ARG_OF_PERICENTER": 83.4253, "MEAN_ANOMALY": 276.6931, "EPHEMERIS_TYPE": 0, "CLASSIFICATION_TYPE": "U", "NORAD_CAT_ID": 66375, "ELEMENT_SET_NO": 999, "REV_AT_EPOCH": 416, "BSTAR": 0.0010632, "MEAN_MOTION_DOT": 0.0015813, "MEAN_MOTION_DDOT": 0}, "tle": {"line1": "1 66375U 25254AD  25337.09268030  .00158130  00000+0  10632-2 0  9994", "line2": "2 66375  53.1570 322.7422 0001438  83.4253 276.6931 15.74202242  4167"}}, "geometry": {"type": "Point", "coordinates": [-165.84115223859655, -46.88369080605063]}}, {"type": "Feature", "properties": {"norad_id": 66376, "name": "SHIYAN-32 01", "group": "last-30-days", "lat": 10.63428962847021, "lon": 34.07298585500364, "alt_km": 446.93596921676635, "timestamp": "2025-12-03T10:52:56.220740+00:00", "meta": {"OBJECT_NAME": "SHIYAN-32 01", "OBJECT_ID": "2025-255A", "EPOCH": "2025-12-03T03:56:33.720288", "MEAN_MOTION": 15.42269156, "ECCENTRICITY": 0.001344, "INCLINATION": 52.9966, "RA_OF_ASC_NODE": 223.5875, "ARG_OF_PERICENTER": 12.4455, "MEAN_ANOMALY": 347.6878, "EPHEMERIS_TYPE": 0, "CLASSIFICATION_TYPE": "U", "NORAD_CAT_ID": 66376, "ELEMENT_SET_NO": 999, "REV_AT_EPOCH": 387, "BSTAR": 0.00063113, "MEAN_MOTION_DOT": 0.00027333, "MEAN_MOTION_DDOT": 0}, "tle": {"line1": "1 66376U 25255A   25337.16427917  .00027333  00000+0  63113-3 0  9998", "line2": "2 66376  52.9966 223.5875 0013440  12.4455 347.6878 15.42269156  3874"}}, "geometry": {"type": "Point", "coordinates": [34.07298585500364, 10.63428962847021]}}, {"type": "Feature", "properties": {"norad_id": 66377, "name": "CZ-11 DEB", "group": "last-30-days", "lat": -39.401567926206475, "lon": 80.3634461546468, "alt_km": 447.1014893212323, "timestamp": "2025-12-03T10:52:56.220751+00:00", "meta": {"OBJECT_NAME": "CZ-11 DEB", "OBJECT_ID": "2025-255B", "EPOCH": "2025-12-03T03:39:44.697888", "MEAN_MOTION": 15.43512096, "ECCENTRICITY": 0.001394, "INCLINATION": 52.9967, "RA_OF_ASC_NODE": 223.5137, "ARG_OF_PERICENTER": 10.1182, "MEAN_ANOMALY": 350.01, "EPHEMERIS_TYPE": 0, "CLASSIFICATION_TYPE": "U", "NORAD_CAT_ID": 66377, "ELEMENT_SET_NO": 999, "REV_AT_EPOCH": 373, "BSTAR": 0.0010668, "MEAN_MOTION_DOT": 0.00048636, "MEAN_MOTION_DDOT": 0}, "tle": {"line1": "1 66377U 25255B   25337.15260067  .00048636  00000+0  10668-2 0  9994", "line2": "2 66377  52.9967 223.5137 0013940  10.1182 350.0100 15.43512096  3730"}}, "geometry": {"type": "Point", "coordinates": [80.3634461546468, -39.401567926206475]}}, {"type": "Feature", "properties": {"norad_id": 66378, "name": "SHIYAN-32 02", "group": "last-30-days", "lat": -52.0679756142104, "lon": 117.41493292825548, "alt_km": 441.49597170246943, "timestamp": "2025-12-03T10:52:56.220764+00:00", "meta": {"OBJECT_NAME": "SHIYAN-32 02", "OBJECT_ID": "2025-255C", "EPOCH": "2025-12-03T03:32:31.882272", "MEAN_MOTION": 15.44084995, "ECCENTRICITY": 0.0012368, "INCLINATION": 52.9971, "RA_OF_ASC_NODE": 223.4835, "ARG_OF_PERICENTER": 9.8117, "MEAN_ANOMALY": 350.3126, "EPHEMERIS_TYPE": 0, "CLASSIFICATION_TYPE": "U", "NORAD_CAT_ID": 66378, "ELEMENT_SET_NO": 999, "REV_AT_EPOCH": 373, "BSTAR": 0.0020674, "MEAN_MOTION_DOT": 0.0009704, "MEAN_MOTION_DDOT": 0}, "tle": {"line1": "1 66378U 25255C   25337.14759123  .00097040  00000+0  20674-2 0  9991", "line2": "2 66378  52.9971 223.4835 0012368   9.8117 350.3126 15.44084995  3730"}}, "geometry": {"type": "Point", "coordinates": [117.41493292825548, -52.0679756142104]}}, {"type": "Feature", "properties": {"norad_id": 66379, "name": "SHIYAN-32 03", "group": "last-30-days", "lat": -14.441916638322514, "lon": 53.351602593313956, "alt_km": 451.3992785129667, "timestamp": "2025-12-03T10:52:56.220778+00:00", "meta": {"OBJECT_NAME": "SHIYAN-32 03", "OBJECT_ID": "2025-255D", "EPOCH": "2025-12-03T03:48:27.506880", "MEAN_MOTION": 15.42622193, "ECCENTRICITY": 0.0015469, "INCLINATION": 52.9973, "RA_OF_ASC_NODE": 223.5532, "ARG_OF_PERICENTER": 13.41, "MEAN_ANOMALY": 346.7312, "EPHEMERIS_TYPE": 0, "CLASSIFICATION_TYPE": "U", "NORAD_CAT_ID": 66379, "ELEMENT_SET_NO": 999, "REV_AT_EPOCH": 375, "BSTAR": 0.00057443, "MEAN_MOTION_DOT": 0.00025157, "MEAN_MOTION_DDOT": 0}, "tle": {"line1": "1 66379U 25255D   25337.15865170  .00025157  00000+0  57443-3 0  9998", "line2": "2 66379  52.9973 223.5532 0015469  13.4100 346.7312 15.42622193  3750"}}, "geometry": {"type": "Point", "coordinates": [53.351602593313956, -14.441916638322514]}}, {"type": "Feature", "properties": {"norad_id": 66380, "name": "STARLINK-35139", "group": "last-30-days", "lat": 29.32092830101143, "lon": 103.50720987692138, "alt_km": 443.2613922536175, "timestamp": "2025-12-03T10:52:56.220789+00:00", "meta": {"OBJECT_NAME": "STARLINK-35139", "OBJECT_ID": "2025-257A", "EPOCH": "2025-12-03T04:00:01.998720", "MEAN_MOTION": 15.39578417, "ECCENTRICITY": 0.0001181, "INCLINATION": 53.1586, "RA_OF_ASC_NODE": 309.7629, "ARG_OF_PERICENTER": 90.3885, "MEAN_ANOMALY": 261.6374, "EPHEMERIS_TYPE": 0, "CLASSIFICATION_TYPE": "U", "NORAD_CAT_ID": 66380, "ELEMENT_SET_NO": 999, "REV_AT_EPOCH": 489, "BSTAR": 0.00081433, "MEAN_MOTION_DOT": 0.00032266, "MEAN_MOTION_DDOT": 0}, "tle": {"line1": "1 66380U 25257A   25337.16668980  .00032266  00000+0  81433-3 0  9998", "line2": "2 66380  53.1586 309.7629 0001181  90.3885 261.6374 15.39578417  4893"}}, "geometry": {"type": "Point", "coordinates": [103.50720987692138, 29.32092830101143]}}, {"type": "Feature", "properties": {"norad_id": 66381, "name": "STARLINK-35158", "group": "last-30-days", "lat": 27.97581239101613, "lon": 104.93867648386195, "alt_km": 443.3476042847051, "timestamp": "2025-12-03T10:52:56.220800+00:00", "meta": {"OBJECT_NAME": "STARLINK-35158", "OBJECT_ID": "2025-257B", "EPOCH": "2025-12-03T04:00:01.998720", "MEAN_MOTION": 15.39582648, "ECCENTRICITY": 0.0001442, "INCLINATION": 53.1587, "RA_OF_ASC_NODE": 309.7586, "ARG_OF_PERICENTER": 93.1907, "MEAN_ANOMALY": 260.6708, "EPHEMERIS_TYPE": 0, "CLASSIFICATION_TYPE": "U", "NORAD_CAT_ID": 66381, "ELEMENT_SET_NO": 999, "REV_AT_EPOCH": 495, "BSTAR": 0.00072175, "MEAN_MOTION_DOT": 0.00028542, "MEAN_MOTION_DDOT": 0}, "tle": {"line1": "1 66381U 25257B   25337.16668980  .00028542  00000+0  72175-3 0  9994", "line2": "2 66381  53.1587 309.7586 0001442  93.1907 260.6708 15.39582648  4951"}}, "geometry": {"type": "Point", "coordinates": [104.93867648386195, 27.97581239101613]}}, {"type": "Feature", "properties": {"norad_id": 66382, "name": "STARLINK-35639", "group": "last-30-days", "lat": 9.543798782380753, "lon": 121.11666809773578, "alt_km": 446.6542378605427, "timestamp": "2025-12-03T10:52:56.220811+00:00", "meta": {"OBJECT_NAME": "STARLINK-35639", "OBJECT_ID": "2025-257C", "EPOCH": "2025-12-03T04:00:01.998720", "MEAN_MOTION": 15.39577814, "ECCENTRICITY": 0.0001367, "INCLINATION": 53.159, "RA_OF_ASC_NODE": 309.7097, "ARG_OF_PERICENTER": 91.3775, "MEAN_ANOMALY": 286.4028, "EPHEMERIS_TYPE": 0, "CLASSIFICATION_TYPE": "U", "NORAD_CAT_ID": 66382, "ELEMENT_SET_NO": 999, "REV_AT_EPOCH": 495, "BSTAR": 0.00069601, "MEAN_MOTION_DOT": 0.00027502, "MEAN_MOTION_DDOT": 0}, "tle": {"line1": "1 66382U 25257C   25337.16668980  .00027502  00000+0  69601-3 0  9990", "line2": "2 66382  53.1590 309.7097 0001367  91.3775 286.4028 15.39577814  4952"}}, "geometry": {"type": "Point", "coordinates": [121.11666809773578, 9.543798782380753]}}, {"type": "Feature", "properties": {"norad_id": 66383, "name": "STARLINK-35690", "group": "last-30-days", "lat": -10.991392946032914, "lon": 136.6798112151627, "alt_km": 448.0451661158477, "timestamp": "2025-12-03T10:52:56.220822+00:00", "meta": {"OBJECT_NAME": "STARLINK-35690", "OBJECT_ID": "2025-257D", "EPOCH": "2025-12-03T04:00:01.998720", "MEAN_MOTION": 15.4157199, "ECCENTRICITY": 0.0001152, "INCLINATION": 53.1592, "RA_OF_ASC_NODE": 309.6607, "ARG_OF_PERICENTER": 104.0539, "MEAN_ANOMALY": 298.1955, "EPHEMERIS_TYPE": 0, "CLASSIFICATION_TYPE": "U", "NORAD_CAT_ID": 66383, "ELEMENT_SET_NO": 999, "REV_AT_EPOCH": 495, "BSTAR": -0.062933, "MEAN_MOTION_DOT": -0.02388453, "MEAN_MOTION_DDOT": 0}, "tle": {"line1": "1 66383U 25257D   25337.16668980 -.02388453  00000+0 -62933-1 0  9999", "line2": "2 66383  53.1592 309.6607 0001152 104.0539 298.1955 15.41571990  4954"}}, "geometry": {"type": "Point", "coordinates": [136.6798112151627, -10.991392946032914]}}, {"type": "Feature", "properties": {"norad_id": 66384, "name": "STARLINK-35662", "group": "last-30-days", "lat": -12.44032599083082, "lon": 137.82415559723273, "alt_km": 448.29717217666985, "timestamp": "2025-12-03T10:52:56.220835+00:00", "meta": {"OBJECT_NAME": "STARLINK-35662", "OBJECT_ID": "2025-257E", "EPOCH": "2025-12-03T04:00:01.998720", "MEAN_MOTION": 15.41552093, "ECCENTRICITY": 0.0001105, "INCLINATION": 53.1594, "RA_OF_ASC_NODE": 309.658, "ARG_OF_PERICENTER": 97.4017, "MEAN_ANOMALY": 306.6958, "EPHEMERIS_TYPE": 0, "CLASSIFICATION_TYPE": "U", "NORAD_CAT_ID": 66384, "ELEMENT_SET_NO": 999, "REV_AT_EPOCH": 495, "BSTAR": -0.062398, "MEAN_MOTION_DOT": -0.02368937, "MEAN_MOTION_DDOT": 0}, "tle": {"line1": "1 66384U 25257E   25337.16668980 -.02368937  00000+0 -62398-1 0  9990", "line2": "2 66384  53.1594 309.6580 0001105  97.4017 306.6958 15.41552093  4952"}}, "geometry": {"type": "Point", "coordinates": [137.82415559723273, -12.44032599083082]}}]}